NORAD_CAT_ID,OBJECT_NAME,OBJECT_TYPE,EPOCH,MEAN_MOTION,ECCENTRICITY,INCLINATION,RA_OF_ASC_NODE,ARG_OF_PERICENTER,MEAN_ANOMALY,BSTAR,MEAN_MOTION_DOT,MEAN_MOTION_DDOT,TLE_LINE0,TLE_LINE1,TLE_LINE2,SEMIMAJOR_AXIS,PERIOD,APOGEE,PERIGEE,DECAYED
54770.0,STARLINK-5448,PAYLOAD,2024-08-01 23:12:01,15.08834608,0.0001467,53.2175,134.23,90.2843,269.8318,9.9418e-05,1.294e-05,0.0,0 STARLINK-5448,1 54770U 22175N   24214.96668120  .00001294  00000-0  99418-4 0  9992,2 54770  53.2175 134.2300 0001467  90.2843 269.8318 15.08834608 91858,6917.897,95.438,540.777,538.747,0.0
54770.0,STARLINK-5448,PAYLOAD,2024-08-02 02:22:47,15.08842646,0.0001408,53.2156,133.6325,85.0103,275.105,0.00013666,1.888e-05,0.0,0 STARLINK-5448,1 54770U 22175N   24215.09915746  .00001888  00000-0  13666-3 0  9995,2 54770  53.2156 133.6325 0001408  85.0103 275.1050 15.08842646 89719,6917.872,95.437,540.711,538.763,0.0
54770.0,STARLINK-5448,PAYLOAD,2024-08-02 11:55:05,15.08857554,0.0001303,53.2154,131.8457,86.6792,273.435,0.00039684,6.036e-05,0.0,0 STARLINK-5448,1 54770U 22175N   24215.49658920  .00006036  00000-0  39684-3 0  9995,2 54770  53.2154 131.8457 0001303  86.6792 273.4350 15.08857554 89772,6917.827,95.436,540.593,538.79,0.0
54770.0,STARLINK-5448,PAYLOAD,2024-08-02 18:16:39,15.08833936,0.0001643,53.2165,130.6603,89.774,270.344,7.8449e-05,9.61e-06,0.0,0 STARLINK-5448,1 54770U 22175N   24215.76156334  .00000961  00000-0  78449-4 0  9991,2 54770  53.2165 130.6603 0001643  89.7740 270.3440 15.08833936 89817,6917.899,95.438,540.901,538.627,0.0
54770.0,STARLINK-5448,PAYLOAD,2024-08-03 03:48:57,15.08843204,0.0001385,53.2157,128.8741,93.0843,267.0307,0.00088479,0.00013823,0.0,0 STARLINK-5448,1 54770U 22175N   24216.15899659  .00013823  00000-0  88479-3 0  9993,2 54770  53.2157 128.8741 0001385  93.0843 267.0307 15.08843204 89875,6917.871,95.437,540.694,538.777,0.0
54770.0,STARLINK-5448,PAYLOAD,2024-08-03 11:45:53,15.08849841,0.0001411,53.2159,127.3878,86.269,273.8464,0.0013194,0.00020778,0.0,0 STARLINK-5448,1 54770U 22175N   24216.49019736  .00020778  00000-0  13194-2 0  9998,2 54770  53.2159 127.3878 0001411  86.2690 273.8464 15.08849841 92085,6917.85,95.437,540.691,538.739,0.0
54770.0,STARLINK-5448,PAYLOAD,2024-08-03 21:18:12,15.08844079,0.0002257,53.216,125.6008,115.0582,245.0645,0.00080748,0.00012588,0.0,0 STARLINK-5448,1 54770U 22175N   24216.88764069  .00012588  00000-0  80748-3 0  9997,2 54770  53.2160 125.6008 0002257 115.0582 245.0645 15.08844079 89988,6917.868,95.437,541.294,538.172,0.0
54770.0,STARLINK-5448,PAYLOAD,2024-08-03 22:53:35,15.08841779,0.0001899,53.2166,125.304,121.7706,238.3471,0.00053225,8.193e-05,0.0,0 STARLINK-5448,1 54770U 22175N   24216.95387994  .00008193  00000-0  53225-3 0  9990,2 54770  53.2166 125.3040 0001899 121.7706 238.3471 15.08841779 92159,6917.875,95.437,541.054,538.426,0.0
54770.0,STARLINK-5448,PAYLOAD,2024-08-04 03:39:44,15.08841144,0.0001736,53.217,124.4119,114.1287,245.9887,0.00035821,5.418e-05,0.0,0 STARLINK-5448,1 54770U 22175N   24217.15260044  .00005418  00000-0  35821-3 0  9998,2 54770  53.2170 124.4119 0001736 114.1287 245.9887 15.08841144 90026,6917.877,95.437,540.943,538.541,0.0
54770.0,STARLINK-5448,PAYLOAD,2024-08-04 22:44:21,15.08857926,0.0001702,53.2169,120.8438,109.8533,250.2642,0.00062469,9.673e-05,0.0,0 STARLINK-5448,1 54770U 22175N   24217.94747676  .00009673  00000-0  62469-3 0  9991,2 54770  53.2169 120.8438 0001702 109.8533 250.2642 15.08857926 92302,6917.826,95.436,540.868,538.513,0.0
54770.0,STARLINK-5448,PAYLOAD,2024-08-05 22:35:09,15.08828132,0.0001354,53.2155,116.3852,126.1715,233.9403,-0.00011275,-2.081e-05,0.0,0 STARLINK-5448,1 54770U 22175N   24218.94108673 -.00002081  00000-0 -11275-3 0  9997,2 54770  53.2155 116.3852 0001354 126.1715 233.9403 15.08828132 92450,6917.917,95.438,540.718,538.845,0.0
54770.0,STARLINK-5448,PAYLOAD,2024-08-06 00:10:33,15.08813758,0.0001284,53.2165,116.0862,102.9514,257.1622,-0.00050138,-8.253e-05,0.0,0 STARLINK-5448,1 54770U 22175N   24219.00733044 -.00008253  00000-0 -50138-3 0  9999,2 54770  53.2165 116.0862 0001284 102.9514 257.1622 15.08813758 90301,6917.961,95.439,540.714,538.937,0.0
54770.0,STARLINK-5448,PAYLOAD,2024-08-06 20:50:34,15.08841527,0.0001327,53.2153,112.2231,116.0117,244.1012,0.0013703,0.00021588,0.0,0 STARLINK-5448,1 54770U 22175N   24219.86845938  .00021588  00000-0  13703-2 0  9999,2 54770  53.2153 112.2231 0001327 116.0117 244.1012 15.08841527 90437,6917.876,95.437,540.659,538.823,0.0
54770.0,STARLINK-5448,PAYLOAD,2024-08-07 00:01:21,15.08860516,0.000139,53.2156,111.6293,116.2476,243.8659,0.0019984,0.00031678,0.0,0 STARLINK-5448,1 54770U 22175N   24220.00093760  .00031678  00000-0  19984-2 0  9993,2 54770  53.2156 111.6293 0001390 116.2476 243.8659 15.08860516 90455,6917.818,95.436,540.644,538.721,0.0
54770.0,STARLINK-5448,PAYLOAD,2024-08-07 20:41:20,15.08877046,0.0001757,53.2153,107.762,128.0945,232.0206,0.0016634,0.00026311,0.0,0 STARLINK-5448,1 54770U 22175N   24220.86204799  .00026311  00000-0  16634-2 0  9990,2 54770  53.2153 107.7620 0001757 128.0945 232.0206 15.08877046 90589,6917.767,95.435,540.848,538.417,0.0
54770.0,STARLINK-5448,PAYLOAD,2024-08-08 20:32:07,15.08875502,0.000102,53.2157,103.3032,65.5068,294.603,0.0019577,0.00031037,0.0,0 STARLINK-5448,1 54770U 22175N   24221.85564546  .00031037  00000-0  19577-2 0  9999,2 54770  53.2157 103.3032 0001020  65.5068 294.6030 15.08875502 90737,6917.772,95.435,540.342,538.931,0.0
54770.0,STARLINK-5448,PAYLOAD,2024-08-08 22:07:30,15.08862568,0.0002146,53.2153,103.0023,153.531,206.5792,0.0010347,0.00016228,0.0,0 STARLINK-5448,1 54770U 22175N   24221.92187919  .00016228  00000-0  10347-2 0  9993,2 54770  53.2153 103.0023 0002146 153.5310 206.5792 15.08862568 92904,6917.811,95.436,541.161,538.192,0.0
54770.0,STARLINK-5448,PAYLOAD,2024-08-09 01:18:16,15.08851591,0.0001098,53.2148,102.4077,106.1539,253.9574,0.00014788,2.067e-05,0.0,0 STARLINK-5448,1 54770U 22175N   24222.05436178  .00002067  00000-0  14788-3 0  9992,2 54770  53.2148 102.4077 0001098 106.1539 253.9574 15.08851591 90762,6917.845,95.437,540.47,538.95,0.0
54770.0,STARLINK-5448,PAYLOAD,2024-08-09 09:15:12,15.08863822,0.0001397,53.2158,100.9291,80.5465,279.5685,0.00031761,4.774e-05,0.0,0 STARLINK-5448,1 54770U 22175N   24222.38555606  .00004774  00000-0  31761-3 0  9993,2 54770  53.2158 100.9291 0001397  80.5465 279.5685 15.08863822 90812,6917.808,95.436,540.639,538.706,0.0
54770.0,STARLINK-5448,PAYLOAD,2024-08-09 20:22:54,15.0883484,0.000133,53.2147,98.8359,89.1745,270.9399,-0.00013029,-2.361e-05,0.0,0 STARLINK-5448,1 54770U 22175N   24222.84924576 -.00002361  00000-0 -13029-3 0  9999,2 54770  53.2147  98.8359 0001330  89.1745 270.9399 15.08834840 90885,6917.896,95.438,540.681,538.841,0.0
54770.0,STARLINK-5448,PAYLOAD,2024-08-09 21:58:18,15.08834139,0.0001266,53.2151,98.5425,80.2185,279.895,-0.00013913,-2.501e-05,0.0,0 STARLINK-5448,1 54770U 22175N   24222.91548691 -.00002501  00000-0 -13913-3 0  9995,2 54770  53.2151  98.5425 0001266  80.2185 279.8950 15.08834139 93053,6917.898,95.438,540.639,538.887,0.0
54770.0,STARLINK-5448,PAYLOAD,2024-08-10 01:09:03,15.08850106,9.81e-05,53.2157,97.9478,92.1422,267.9683,0.00014956,2.094e-05,0.0,0 STARLINK-5448,1 54770U 22175N   24223.04796154  .00002094  00000-0  14956-3 0  9992,2 54770  53.2157  97.9478 0000981  92.1422 267.9683 15.08850106 90914,6917.849,95.437,540.393,539.036,0.0
54770.0,STARLINK-5448,PAYLOAD,2024-08-10 20:13:41,15.08838296,0.0001023,53.2153,94.3792,100.0114,260.0994,1.1962e-06,-2.69e-06,0.0,0 STARLINK-5448,1 54770U 22175N   24223.84284711 -.00000269  00000-0  11962-5 0  9990,2 54770  53.2153  94.3792 0001023 100.0114 260.0994 15.08838296 91034,6917.886,95.438,540.458,539.043,0.0
54770.0,STARLINK-5448,PAYLOAD,2024-08-10 21:49:05,15.08841831,0.000134,53.2159,94.0813,95.3875,264.727,5.8973e-05,6.51e-06,0.0,0 STARLINK-5448,1 54770U 22175N   24223.90908599  .00000651  00000-0  58973-4 0  9990,2 54770  53.2159  94.0813 0001340  95.3875 264.7270 15.08841831 93201,6917.875,95.437,540.667,538.813,0.0
54770.0,STARLINK-5448,PAYLOAD,2024-08-11 08:56:46,15.08855348,0.0001492,53.2173,92.0003,97.8756,262.2406,0.00026667,3.96e-05,0.0,0 STARLINK-5448,1 54770U 22175N   24224.37275911  .00003960  00000-0  26667-3 0  9997,2 54770  53.2173  92.0003 0001492  97.8756 262.2406 15.08855348 91119,6917.833,95.437,540.731,538.666,0.0
54770.0,STARLINK-5448,PAYLOAD,2024-08-11 21:39:52,15.08847635,0.0002376,53.2159,89.6205,100.6964,259.4296,0.00034925,5.276e-05,0.0,0 STARLINK-5448,1 54770U 22175N   24224.90268623  .00005276  00000-0  34925-3 0  9996,2 54770  53.2159  89.6205 0002376 100.6964 259.4296 15.08847635 91198,6917.857,95.437,541.366,538.078,0.0
54770.0,STARLINK-5448,PAYLOAD,2024-08-12 00:50:38,15.08845259,0.0001186,53.2162,89.0261,101.4187,258.6938,0.00021288,3.102e-05,0.0,0 STARLINK-5448,1 54770U 22175N   24225.03516561  .00003102  00000-0  21288-3 0  9992,2 54770  53.2162  89.0261 0001186 101.4187 258.6938 15.08845259 91219,6917.864,95.437,540.55,538.909,0.0
54770.0,STARLINK-5448,PAYLOAD,2024-08-13 14:59:53,15.0884345,0.0002131,53.2172,81.8884,103.6963,256.4267,0.00022238,3.253e-05,0.0,0 STARLINK-5448,1 54770U 22175N   24226.62493042  .00003253  00000-0  22238-3 0  9999,2 54770  53.2172  81.8884 0002131 103.6963 256.4267 15.08843450 93616,6917.87,95.437,541.209,538.261,0.0
54770.0,STARLINK-5448,PAYLOAD,2024-08-13 21:21:27,15.08784355,5.27e-05,53.2153,80.6979,345.7659,14.3318,-0.00085319,-0.00013819,0.0,0 STARLINK-5448,1 54770U 22175N   24226.88989863 -.00013819  00000-0 -85319-3 0  9998,2 54770  53.2153  80.6979 0000527 345.7659  14.3318 15.08784355 91495,6918.05,95.441,540.28,539.551,0.0
54770.0,STARLINK-5448,PAYLOAD,2024-08-14 06:53:46,15.08813109,0.0001672,53.2185,78.915,98.6479,261.4703,-0.00026195,-4.451e-05,0.0,0 STARLINK-5448,1 54770U 22175N   24227.28734725 -.00004451  00000-0 -26195-3 0  9997,2 54770  53.2185  78.9150 0001672  98.6479 261.4703 15.08813109 91557,6917.963,95.439,540.984,538.671,0.0
